*******************************************************************************
Ephemeris / WWW_USER Mon Mar 24 08:43:20 2025 Pasadena, USA      / Horizons    
*******************************************************************************
Target body name: (2018 OZ)                       {source: JPL#6}
Center body name: Earth (399)                     {source: DE441}
Center-site name: Mauna Kea
*******************************************************************************
Start time      : A.D. 2018-Dec-31 04:03:00.0000 UT      
Stop  time      : A.D. 2018-Dec-31 16:46:00.0000 UT      
Step-size       : 1 minutes
*******************************************************************************
Target pole/equ : undefined
Target radii    : undefined                                                    
Center geodetic : 204.5278, 19.8260847, 4.21024   {E-lon(deg),Lat(deg),Alt(km)}
Center cylindric: 204.5278, 6006.35451, 2151.0229 {E-lon(deg),Dxy(km),Dz(km)}
Center pole/equ : ITRF93                          {East-longitude positive}
Center radii    : 6378.137, 6378.137, 6356.752 km {Equator_a, b, pole_c}       
Target primary  : Sun
Vis. interferer : MOON (R_eq= 1737.400) km        {source: DE441}
Rel. light bend : Sun                             {source: DE441}
Rel. lght bnd GM: 1.3271E+11 km^3/s^2                                          
Small-body perts: Yes                             {source: SB441-N16}
Atmos refraction: NO (AIRLESS)
RA format       : HMS
Time format     : CAL 
Calendar mode   : Mixed Julian/Gregorian
RTS-only print  : NO       
EOP file        : eop.250321.p250617                                           
EOP coverage    : DATA-BASED 1962-JAN-20 TO 2025-MAR-21. PREDICTS-> 2025-JUN-16
Units conversion: 1 au= 149597870.700 km, c= 299792.458 km/s, 1 day= 86400.0 s 
Table cut-offs 1: Elevation (-90.0deg=NO ),Airmass (>38.000=NO), Daylight (YES)
Table cut-offs 2: Solar elongation (  0.0,180.0=NO ),Local Hour Angle( 0.0=NO )
Table cut-offs 3: RA/DEC angular rate (     0.0=NO )                           
*******************************************************************************
Initial IAU76/J2000 heliocentric ecliptic osculating elements (au, days, deg.):
  EPOCH=  2458323.5 ! 2018-Jul-24.00 (TDB)         Residual RMS= .14478        
   EC= .2444891433359997   QR= .7813773137930096   TP= 2458414.1453434308      
   OM= 132.5941973996665   W=  282.5797798661226   IN= 11.86066121595313       
  Equivalent ICRF heliocentric cartesian coordinates (au, au/d):
   X= 5.818664496311505E-01  Y=-8.413793559776328E-01  Z=-3.233166781784031E-01
  VX= 1.092981696788880E-02 VY= 1.198494789184266E-02 VZ= 1.554952570596135E-03
Asteroid physical parameters (km, seconds, rotational period in hours):        
   GM= n.a.                RAD= n.a.               ROTPER= n.a.                
   H= 24.9                 G= .150                 B-V= n.a.                   
                           ALBEDO= n.a.            STYP= n.a.                  
*******************************************************************************
 Date__(UT)__HR:MN     R.A._________(ICRF)_________DEC
******************************************************
$$SOE
 2018-Dec-31 06:06     14 12 16.585995 -09 06 48.73492
 2018-Dec-31 06:07     14 12 16.720875 -09 06 48.77101
 2018-Dec-31 06:08     14 12 16.855754 -09 06 48.80712
 2018-Dec-31 06:09     14 12 16.990632 -09 06 48.84326
 2018-Dec-31 06:10     14 12 17.125509 -09 06 48.87943
 2018-Dec-31 06:11     14 12 17.260385 -09 06 48.91563
 2018-Dec-31 06:12     14 12 17.395259 -09 06 48.95185
 2018-Dec-31 06:13     14 12 17.530133 -09 06 48.98810
 2018-Dec-31 06:14     14 12 17.665005 -09 06 49.02438
 2018-Dec-31 06:15     14 12 17.799876 -09 06 49.06069
 2018-Dec-31 06:16     14 12 17.934746 -09 06 49.09703
 2018-Dec-31 06:17     14 12 18.069614 -09 06 49.13339
 2018-Dec-31 06:18     14 12 18.204481 -09 06 49.16978
 2018-Dec-31 06:19     14 12 18.339346 -09 06 49.20620
 2018-Dec-31 06:20     14 12 18.474210 -09 06 49.24264
 2018-Dec-31 06:21     14 12 18.609072 -09 06 49.27911
 2018-Dec-31 06:22     14 12 18.743932 -09 06 49.31561
 2018-Dec-31 06:23     14 12 18.878791 -09 06 49.35214
 2018-Dec-31 06:24     14 12 19.013648 -09 06 49.38869
 2018-Dec-31 06:25     14 12 19.148503 -09 06 49.42528
 2018-Dec-31 06:26     14 12 19.283356 -09 06 49.46188
 2018-Dec-31 06:27     14 12 19.418207 -09 06 49.49852
 2018-Dec-31 06:28     14 12 19.553056 -09 06 49.53518
 2018-Dec-31 06:29     14 12 19.687903 -09 06 49.57188
 2018-Dec-31 06:30     14 12 19.822748 -09 06 49.60859
 2018-Dec-31 06:31     14 12 19.957590 -09 06 49.64534
 2018-Dec-31 06:32     14 12 20.092431 -09 06 49.68211
 2018-Dec-31 06:33     14 12 20.227269 -09 06 49.71891
 2018-Dec-31 06:34     14 12 20.362104 -09 06 49.75574
 2018-Dec-31 06:35     14 12 20.496938 -09 06 49.79260
 2018-Dec-31 06:36     14 12 20.631768 -09 06 49.82948
 2018-Dec-31 06:37     14 12 20.766597 -09 06 49.86639
 2018-Dec-31 06:38     14 12 20.901422 -09 06 49.90332
 2018-Dec-31 06:39     14 12 21.036245 -09 06 49.94029
 2018-Dec-31 06:40     14 12 21.171066 -09 06 49.97728
 2018-Dec-31 06:41     14 12 21.305883 -09 06 50.01430
 2018-Dec-31 06:42     14 12 21.440698 -09 06 50.05134
 2018-Dec-31 06:43     14 12 21.575510 -09 06 50.08841
 2018-Dec-31 06:44     14 12 21.710319 -09 06 50.12551
 2018-Dec-31 06:45     14 12 21.845125 -09 06 50.16264
 2018-Dec-31 06:46     14 12 21.979928 -09 06 50.19979
 2018-Dec-31 06:47     14 12 22.114728 -09 06 50.23697
 2018-Dec-31 06:48     14 12 22.249525 -09 06 50.27418
 2018-Dec-31 06:49     14 12 22.384318 -09 06 50.31141
 2018-Dec-31 06:50     14 12 22.519109 -09 06 50.34867
 2018-Dec-31 06:51     14 12 22.653896 -09 06 50.38596
 2018-Dec-31 06:52     14 12 22.788679 -09 06 50.42327
 2018-Dec-31 06:53     14 12 22.923460 -09 06 50.46061
 2018-Dec-31 06:54     14 12 23.058236 -09 06 50.49798
 2018-Dec-31 06:55     14 12 23.193010 -09 06 50.53537
 2018-Dec-31 06:56     14 12 23.327779 -09 06 50.57279
 2018-Dec-31 06:57     14 12 23.462545 -09 06 50.61024
 2018-Dec-31 06:58     14 12 23.597307 -09 06 50.64771
 2018-Dec-31 06:59     14 12 23.732066 -09 06 50.68521
 2018-Dec-31 07:00     14 12 23.866821 -09 06 50.72274
 2018-Dec-31 07:01     14 12 24.001572 -09 06 50.76029
 2018-Dec-31 07:02     14 12 24.136319 -09 06 50.79787
 2018-Dec-31 07:03     14 12 24.271062 -09 06 50.83547
 2018-Dec-31 07:04     14 12 24.405801 -09 06 50.87310
 2018-Dec-31 07:05     14 12 24.540536 -09 06 50.91076
 2018-Dec-31 07:06     14 12 24.675267 -09 06 50.94845
 2018-Dec-31 07:07     14 12 24.809993 -09 06 50.98616
 2018-Dec-31 07:08     14 12 24.944716 -09 06 51.02389
 2018-Dec-31 07:09     14 12 25.079434 -09 06 51.06166
 2018-Dec-31 07:10     14 12 25.214148 -09 06 51.09944
 2018-Dec-31 07:11     14 12 25.348857 -09 06 51.13726
 2018-Dec-31 07:12     14 12 25.483562 -09 06 51.17510
 2018-Dec-31 07:13     14 12 25.618262 -09 06 51.21297
 2018-Dec-31 07:14     14 12 25.752958 -09 06 51.25086
 2018-Dec-31 07:15     14 12 25.887649 -09 06 51.28878
 2018-Dec-31 07:16     14 12 26.022336 -09 06 51.32672
 2018-Dec-31 07:17     14 12 26.157018 -09 06 51.36469
 2018-Dec-31 07:18     14 12 26.291695 -09 06 51.40269
 2018-Dec-31 07:19     14 12 26.426367 -09 06 51.44071
 2018-Dec-31 07:20     14 12 26.561035 -09 06 51.47876
 2018-Dec-31 07:21     14 12 26.695697 -09 06 51.51683
 2018-Dec-31 07:22     14 12 26.830355 -09 06 51.55493
 2018-Dec-31 07:23     14 12 26.965007 -09 06 51.59305
 2018-Dec-31 07:24     14 12 27.099655 -09 06 51.63120
 2018-Dec-31 07:25     14 12 27.234297 -09 06 51.66937
 2018-Dec-31 07:26     14 12 27.368934 -09 06 51.70757
 2018-Dec-31 07:27     14 12 27.503566 -09 06 51.74580
 2018-Dec-31 07:28     14 12 27.638192 -09 06 51.78405
 2018-Dec-31 07:29     14 12 27.772813 -09 06 51.82232
 2018-Dec-31 07:30     14 12 27.907429 -09 06 51.86062
 2018-Dec-31 07:31     14 12 28.042039 -09 06 51.89895
 2018-Dec-31 07:32     14 12 28.176644 -09 06 51.93730
 2018-Dec-31 07:33     14 12 28.311243 -09 06 51.97567
 2018-Dec-31 07:34     14 12 28.445837 -09 06 52.01407
 2018-Dec-31 07:35     14 12 28.580425 -09 06 52.05250
 2018-Dec-31 07:36     14 12 28.715007 -09 06 52.09095
 2018-Dec-31 07:37     14 12 28.849584 -09 06 52.12942
 2018-Dec-31 07:38     14 12 28.984154 -09 06 52.16792
 2018-Dec-31 07:39     14 12 29.118719 -09 06 52.20644
 2018-Dec-31 07:40     14 12 29.253278 -09 06 52.24499
 2018-Dec-31 07:41     14 12 29.387831 -09 06 52.28357
 2018-Dec-31 07:42     14 12 29.522378 -09 06 52.32216
 2018-Dec-31 07:43     14 12 29.656919 -09 06 52.36078
 2018-Dec-31 07:44     14 12 29.791453 -09 06 52.39943
 2018-Dec-31 07:45     14 12 29.925982 -09 06 52.43810
 2018-Dec-31 07:46     14 12 30.060504 -09 06 52.47679
 2018-Dec-31 07:47     14 12 30.195020 -09 06 52.51551
 2018-Dec-31 07:48     14 12 30.329530 -09 06 52.55425
 2018-Dec-31 07:49     14 12 30.464033 -09 06 52.59302
 2018-Dec-31 07:50     14 12 30.598530 -09 06 52.63181
 2018-Dec-31 07:51     14 12 30.733021 -09 06 52.67063
 2018-Dec-31 07:52     14 12 30.867505 -09 06 52.70946
 2018-Dec-31 07:53     14 12 31.001982 -09 06 52.74833
 2018-Dec-31 07:54     14 12 31.136453 -09 06 52.78721
 2018-Dec-31 07:55     14 12 31.270917 -09 06 52.82612
 2018-Dec-31 07:56     14 12 31.405374 -09 06 52.86505
 2018-Dec-31 07:57     14 12 31.539825 -09 06 52.90401
 2018-Dec-31 07:58     14 12 31.674269 -09 06 52.94299
 2018-Dec-31 07:59     14 12 31.808706 -09 06 52.98199
 2018-Dec-31 08:00     14 12 31.943136 -09 06 53.02102
 2018-Dec-31 08:01     14 12 32.077559 -09 06 53.06007
 2018-Dec-31 08:02     14 12 32.211975 -09 06 53.09914
 2018-Dec-31 08:03     14 12 32.346384 -09 06 53.13823
 2018-Dec-31 08:04     14 12 32.480785 -09 06 53.17735
 2018-Dec-31 08:05     14 12 32.615180 -09 06 53.21649
 2018-Dec-31 08:06     14 12 32.749568 -09 06 53.25566
 2018-Dec-31 08:07     14 12 32.883948 -09 06 53.29484
 2018-Dec-31 08:08     14 12 33.018321 -09 06 53.33405
